OBJECT_NAME,OBJECT_ID,EPOCH,MEAN_MOTION,ECCENTRICITY,INCLINATION,RA_OF_ASC_NODE,ARG_OF_PERICENTER,MEAN_ANOMALY,EPHEMERIS_TYPE,CLASSIFICATION_TYPE,NORAD_CAT_ID,ELEMENT_SET_NO,REV_AT_EPOCH,BSTAR,MEAN_MOTION_DOT,MEAN_MOTION_DDOT
STARLINK-36872,2026-037Z,2026-06-05T23:32:03.788160,15.27600642,.00017156,43.0025,52.0933,260.6763,99.3895,0,U,67955,999,1684,.12329007E-2,.33842E-3,0
STARLINK-36918,2026-037AA,2026-06-05T23:26:30.263424,15.27590199,.0001786,43.0019,52.0673,244.3573,115.7095,0,U,67956,999,1684,.90224411E-3,.24657E-3,0
STARLINK-36829,2026-037AB,2026-06-06T23:09:56.972736,15.27621081,.00018812,43.0007,46.5963,274.0388,86.0249,0,U,67957,999,1698,.12955827E-2,.35607E-3,0
STARLINK-36799,2026-037AC,2026-06-06T10:20:02.334048,15.27611819,.00020434,43.0036,49.4450,267.1935,92.8683,0,U,67958,999,1691,.93268391E-3,.25517E-3,0
STARLINK-36834,2026-037AD,2026-06-06T10:05:13.927776,15.27597459,.00032707,43.0027,49.3823,262.5820,97.4660,0,U,67959,999,1691,.14049839E-2,.38627E-3,0
STARLINK-36841,2026-037AE,2026-06-06T10:10:48.380448,15.27613710,.00017704,43.0036,49.4080,258.1059,101.9595,0,U,67960,999,1691,.15187762E-2,.41812E-3,0
STARLINK-36912,2026-038A,2026-06-07T06:00:04.999968,15.33429253,.00013032,97.2844,168.0242,87.4474,143.8119,0,U,67961,999,587,-.46150087E-3,-.14938E-3,0
STARLINK-36881,2026-038B,2026-06-07T06:29:48.370272,15.33456219,.00009383,97.2850,168.0532,65.6614,294.4726,0,U,67962,999,1696,.81578979E-3,.26363E-3,0
STARLINK-36357,2026-038C,2026-06-07T06:21:58.452768,15.33454575,.00021069,97.2861,168.0583,94.6609,265.4874,0,U,67963,999,1696,.67768031E-3,.21874E-3,0
STARLINK-36349,2026-038D,2026-06-06T17:54:08.325216,15.33428659,.00021552,97.2851,167.5358,65.0525,295.0941,0,U,67964,999,1688,.85644765E-3,.27663E-3,0
STARLINK-36806,2026-038E,2026-06-06T14:38:23.156736,15.33447340,.0001663,97.2839,167.4186,95.9806,264.1627,0,U,67965,999,1686,.10752768E-2,.34802E-3,0
STARLINK-36820,2026-038F,2026-06-06T13:00:29.874816,15.33455632,.00005362,97.2824,167.3531,121.9080,238.2215,0,U,67966,999,1685,.7930453E-3,.25623E-3,0
STARLINK-36819,2026-038G,2026-06-06T14:30:33.031872,15.33466268,.00014127,97.2847,167.4187,123.3417,236.7962,0,U,67967,999,1686,.98224009E-3,.3179E-3,0
STARLINK-36812,2026-038H,2026-06-06T12:52:40.734048,15.33420775,.00014198,97.2837,167.3635,106.0141,254.1258,0,U,67968,999,1685,.98622606E-3,.31875E-3,0
STARLINK-36709,2026-038J,2026-06-06T14:18:48.745728,15.33444159,.0001663,97.2829,167.4381,86.7160,273.4273,0,U,67969,999,1686,.14326E-2,.46459E-3,0
STARLINK-36319,2026-038K,2026-06-06T14:22:43.041792,15.33468511,.00009756,97.2834,167.4285,155.9827,204.1462,0,U,67970,999,1686,.76177663E-3,.24616E-3,0
STARLINK-36710,2026-038L,2026-06-06T14:14:53.312640,15.33469423,.00006233,97.2821,167.4393,129.7515,230.3783,0,U,67971,999,1686,.7966802E-3,.25752E-3,0
STARLINK-36894,2026-038M,2026-06-07T07:24:36.870048,15.33473067,.00021132,97.2858,168.1524,87.9804,272.1681,0,U,67972,999,1697,.76063878E-3,.24584E-3,0
STARLINK-36900,2026-038N,2026-06-07T07:16:48.112896,15.33454705,.00026396,97.2860,168.1577,94.9140,265.2404,0,U,67973,999,1697,.86589196E-3,.27994E-3,0
STARLINK-36901,2026-038P,2026-06-06T14:07:03.797760,15.33457272,.00011016,97.2832,167.4469,99.8050,260.3318,0,U,67974,999,1686,.52978587E-3,.17074E-3,0
STARLINK-36883,2026-038Q,2026-06-07T07:01:07.466592,15.33469990,.00024557,97.2854,168.1737,92.2910,267.8614,0,U,67975,999,1697,.74144883E-3,.23958E-3,0
STARLINK-36880,2026-038R,2026-06-07T07:12:52.255584,15.33473816,.00025226,97.2854,168.1601,91.3707,268.7825,0,U,67976,999,1697,.86210824E-3,.27887E-3,0
STARLINK-36904,2026-038S,2026-06-07T07:05:02.204160,15.33475056,.00024607,97.2859,168.1698,92.8350,267.3174,0,U,67977,999,1697,.79308892E-3,.25642E-3,0
STARLINK-36364,2026-038T,2026-06-06T18:21:33.516000,15.33453476,.00018842,97.2850,167.6686,96.6673,263.4784,0,U,67978,999,1689,.9367919E-3,.30298E-3,0
STARLINK-36359,2026-038U,2026-06-07T07:08:57.196608,15.33477648,.0002488,97.2854,168.1665,92.8982,267.2545,0,U,67979,999,1697,.88275926E-3,.28563E-3,0
STARLINK-36882,2026-038V,2026-06-07T06:57:12.580416,15.33478326,.00017613,97.2839,168.1794,94.0255,266.1189,0,U,67980,999,1697,.71138398E-3,.22986E-3,0
STARLINK-36874,2026-038W,2026-06-07T06:49:22.602432,15.33469621,.00023456,97.2842,168.1886,92.0173,268.1339,0,U,67981,999,1697,.61754682E-3,.19931E-3,0
STARLINK-36879,2026-038X,2026-06-07T00:29:35.947680,15.33458141,.00018998,97.2857,167.9297,91.7180,268.4280,0,U,67982,999,1693,.74493044E-3,.24061E-3,0
STARLINK-36867,2026-038Y,2026-06-07T06:37:38.062272,15.33446980,.00010449,97.2821,168.1937,100.6057,259.5304,0,U,67983,999,1697,.6361232E-3,.20518E-3,0
STARLINK-36266,2026-038Z,2026-06-07T06:41:33.627552,15.33444997,.00010567,97.2830,168.1923,99.7604,260.3758,0,U,67984,999,1697,.74006409E-3,.23893E-3,0
