STARLINK-36872          
1 67955U 26037Z   26156.98059940  .00033842  00000+0  12329-2 0  9992
2 67955  43.0025  52.0933 0001715 260.6763  99.3895 15.27600642 16849
STARLINK-36918          
1 67956U 26037AA  26156.97673916  .00024657  00000+0  90224-3 0  9992
2 67956  43.0019  52.0673 0001786 244.3573 115.7095 15.27590199 16840
STARLINK-36829          
1 67957U 26037AB  26157.96524273  .00035607  00000+0  12956-2 0  9996
2 67957  43.0007  46.5963 0001881 274.0388  86.0249 15.27621080 16988
STARLINK-36799          
1 67958U 26037AC  26157.43058257  .00025517  00000+0  93268-3 0  9998
2 67958  43.0036  49.4450 0002043 267.1935  92.8683 15.27611819 16915
STARLINK-36834          
1 67959U 26037AD  26157.42030009  .00038627  00000+0  14050-2 0  9990
2 67959  43.0027  49.3823 0003270 262.5820  97.4660 15.27597459 16913
STARLINK-36841          
1 67960U 26037AE  26157.42417107  .00041812  00000+0  15188-2 0  9993
2 67960  43.0036  49.4080 0001770 258.1059 101.9595 15.27613710 16916
STARLINK-36912          
1 67961U 26038A   26158.25005787 -.00014938  00000+0 -46150-3 0  9999
2 67961  97.2844 168.0242 0001303  87.4474 143.8119 15.33429253  5873
STARLINK-36881          
1 67962U 26038B   26158.27069873  .00026363  00000+0  81579-3 0  9995
2 67962  97.2850 168.0532 0000938  65.6614 294.4726 15.33456219 16961
STARLINK-36357          
1 67963U 26038C   26158.26525987  .00021874  00000+0  67768-3 0  9994
2 67963  97.2861 168.0583 0002106  94.6609 265.4874 15.33454575 16960
STARLINK-36349          
1 67964U 26038D   26157.74592969  .00027663  00000+0  85645-3 0  9997
2 67964  97.2851 167.5358 0002155  65.0525 295.0941 15.33428659 16886
STARLINK-36806          
1 67965U 26038E   26157.60999024  .00034802  00000+0  10753-2 0  9996
2 67965  97.2839 167.4186 0001663  95.9806 264.1627 15.33447340 16862
STARLINK-36820          
1 67966U 26038F   26157.54201244  .00025623  00000+0  79305-3 0  9990
2 67966  97.2824 167.3531 0000536 121.9080 238.2215 15.33455632 16859
STARLINK-36819          
1 67967U 26038G   26157.60454898  .00031790  00000+0  98224-3 0  9996
2 67967  97.2847 167.4187 0001412 123.3417 236.7962 15.33466268 16867
STARLINK-36812          
1 67968U 26038H   26157.53658257  .00031875  00000+0  98623-3 0  9991
2 67968  97.2837 167.3635 0001419 106.0141 254.1258 15.33420775 16857
STARLINK-36709          
1 67969U 26038J   26157.59639752  .00046459  00000+0  14326-2 0  9998
2 67969  97.2829 167.4381 0001663  86.7160 273.4273 15.33444159 16868
STARLINK-36319          
1 67970U 26038K   26157.59910928  .00024616  00000+0  76178-3 0  9992
2 67970  97.2834 167.4285 0000975 155.9827 204.1462 15.33468511 16862
STARLINK-36710          
1 67971U 26038L   26157.59367260  .00025752  00000+0  79668-3 0  9997
2 67971  97.2821 167.4393 0000623 129.7515 230.3783 15.33469423 16862
STARLINK-36894          
1 67972U 26038M   26158.30876007  .00024584  00000+0  76064-3 0  9991
2 67972  97.2858 168.1524 0002113  87.9804 272.1681 15.33473067 16971
STARLINK-36900          
1 67973U 26038N   26158.30333464  .00027994  00000+0  86589-3 0  9998
2 67973  97.2860 168.1577 0002639  94.9140 265.2404 15.33454705 16971
STARLINK-36901          
1 67974U 26038P   26157.58823840  .00017074  00000+0  52979-3 0  9994
2 67974  97.2832 167.4469 0001101  99.8050 260.3318 15.33457272 16860
STARLINK-36883          
1 67975U 26038Q   26158.29244753  .00023958  00000+0  74145-3 0  9991
2 67975  97.2854 168.1737 0002455  92.2910 267.8614 15.33469990 16979
STARLINK-36880          
1 67976U 26038R   26158.30060481  .00027887  00000+0  86211-3 0  9990
2 67976  97.2854 168.1601 0002522  91.3707 268.7825 15.33473816 16975
STARLINK-36904          
1 67977U 26038S   26158.29516440  .00025642  00000+0  79309-3 0  9997
2 67977  97.2859 168.1698 0002460  92.8350 267.3174 15.33475056 16978
STARLINK-36364          
1 67978U 26038T   26157.76497125  .00030298  00000+0  93679-3 0  9996
2 67978  97.2850 167.6686 0001884  96.6673 263.4784 15.33453476 16897
STARLINK-36359          
1 67979U 26038U   26158.29788422  .00028563  00000+0  88276-3 0  9998
2 67979  97.2854 168.1665 0002488  92.8982 267.2545 15.33477648 16970
STARLINK-36882          
1 67980U 26038V   26158.28972894  .00022986  00000+0  71138-3 0  9999
2 67980  97.2839 168.1794 0001761  94.0255 266.1189 15.33478326 16974
STARLINK-36874          
1 67981U 26038W   26158.28428938  .00019931  00000+0  61755-3 0  9995
2 67981  97.2842 168.1886 0002345  92.0173 268.1339 15.33469621 16974
STARLINK-36879          
1 67982U 26038X   26158.02055494  .00024061  00000+0  74493-3 0  9994
2 67982  97.2857 167.9297 0001900  91.7180 268.4280 15.33458141 16933
STARLINK-36867          
1 67983U 26038Y   26158.27613498  .00020518  00000+0  63612-3 0  9990
2 67983  97.2821 168.1937 0001044 100.6057 259.5304 15.33446980 16971
STARLINK-36266          
1 67984U 26038Z   26158.27886143  .00023893  00000+0  74006-3 0  9998
2 67984  97.2830 168.1923 0001056  99.7604 260.3758 15.33444997 16975
